{"type":"Feature","properties":{"shape_id":"TER_01_shape","route_id":"TER_01","mode":"ter","source":"osm-railway","osm_relation":13645077,"osm_ways":[810068961,810068960,809624067,1019038334,1019038331,1019038330],"attribution":"© OpenStreetMap contributors (ODbL)","fetched_at":"2026-09-19","note":"Voie ferrée réelle Dakar → Diamniadio (chaînage des ways OSM de la relation TER). Coordonnées GeoJSON = [lng, lat]."},"geometry":{"type":"LineString","coordinates":[[-17.4334675,14.6760751],[-17.4336429,14.6763952],[-17.4345868,14.6781148],[-17.4351699,14.6791757],[-17.4354062,14.679619],[-17.4357239,14.6801872],[-17.4358001,14.6803235],[-17.4362764,14.6811978],[-17.4367459,14.6820347],[-17.4368666,14.6823013],[-17.4370237,14.6826681],[-17.4371616,14.6830349],[-17.4384335,14.6865927],[-17.4385497,14.6869011],[-17.4386382,14.6871152],[-17.4387479,14.6873657],[-17.4388485,14.6875648],[-17.4397766,14.6893669],[-17.4400583,14.6899269],[-17.440382,14.6905415],[-17.4407507,14.6912454],[-17.4412849,14.6922993],[-17.4414111,14.6925934],[-17.4415489,14.6929527],[-17.4417166,14.6935024],[-17.4417908,14.6938296],[-17.4418547,14.6941617],[-17.4419081,14.6945671],[-17.4419383,14.6949569],[-17.4419467,14.6953489],[-17.4419411,14.695588],[-17.4419344,14.6958022],[-17.4418233,14.6974268],[-17.4416258,14.7004341],[-17.4415645,14.7013612],[-17.4415377,14.7019541],[-17.441543,14.7023938],[-17.441541,14.7032117],[-17.4413543,14.7061188],[-17.4410401,14.7108072],[-17.4410085,14.711138],[-17.4409704,14.7113806],[-17.4409114,14.7116439],[-17.4408524,14.7119007],[-17.4407491,14.7122081],[-17.4406311,14.7125233],[-17.4405604,14.71268],[-17.4404889,14.71281],[-17.4402878,14.7131421],[-17.4401335,14.713382],[-17.4399404,14.7136363],[-17.4397084,14.7139009],[-17.439465,14.7141668],[-17.4391867,14.7144055],[-17.4389259,14.714613],[-17.4386623,14.7147894],[-17.4383908,14.7149451],[-17.4381064,14.7150923],[-17.4378275,14.7152064],[-17.4374855,14.7153375],[-17.4371355,14.7154581],[-17.4367439,14.7156086],[-17.4363939,14.7157383],[-17.4360599,14.7158861],[-17.4357689,14.7160327],[-17.4354859,14.7162052],[-17.4352378,14.7163972],[-17.4350118,14.7165898],[-17.4347738,14.7168226],[-17.4345693,14.7170665],[-17.4343923,14.7173188],[-17.4340691,14.7179116],[-17.4326597,14.7207808],[-17.4323589,14.7214643],[-17.432012,14.7221767],[-17.4316684,14.7228685],[-17.4297534,14.7265695],[-17.4295911,14.7268847],[-17.4294329,14.7271286],[-17.4293148,14.7273076],[-17.4289393,14.727779],[-17.4288159,14.7279185],[-17.4286322,14.7281059],[-17.4284787,14.7282563],[-17.4282996,14.7284185],[-17.427955,14.7286954],[-17.4278121,14.7287992],[-17.4275171,14.7290035],[-17.4233595,14.7315438],[-17.4189499,14.7342554],[-17.4182972,14.7346611],[-17.4143773,14.7371122],[-17.4137392,14.7374904],[-17.4133879,14.7376915],[-17.4131857,14.7377983],[-17.413023,14.7378714],[-17.4128367,14.7379444],[-17.4126731,14.7380002],[-17.4124572,14.738067],[-17.4122155,14.7381328],[-17.4118319,14.7382154],[-17.4035251,14.7397146],[-17.4027778,14.7398435],[-17.4012611,14.740105],[-17.4009687,14.7401714],[-17.4007407,14.7402427],[-17.4004702,14.7403436],[-17.400294,14.7404233],[-17.4001216,14.7405125],[-17.3998937,14.7406434],[-17.3996281,14.7408211],[-17.3993787,14.7410234],[-17.398302,14.742007],[-17.3981414,14.7421666],[-17.3979894,14.7423304],[-17.3978573,14.742482],[-17.3976715,14.7427102],[-17.3969333,14.7436419],[-17.3965487,14.7441163],[-17.3958745,14.7449524],[-17.3953502,14.7456618],[-17.3948256,14.7463688],[-17.3942377,14.7471211],[-17.3939266,14.7474778],[-17.3931767,14.748285],[-17.3921676,14.7493367],[-17.3916261,14.7499118],[-17.3911349,14.7504333],[-17.3895139,14.7521283],[-17.388943,14.7527348],[-17.3874493,14.7543247],[-17.3871015,14.7546663],[-17.3867643,14.754964],[-17.3864169,14.7552558],[-17.3860602,14.7555476],[-17.3856941,14.7558329],[-17.3853989,14.7560484],[-17.3850342,14.7563024],[-17.3842846,14.7567653],[-17.3839184,14.756969],[-17.383551,14.7571596],[-17.3819068,14.7579624],[-17.3809412,14.7584383],[-17.3802603,14.7587693],[-17.3795524,14.7591135],[-17.3752348,14.7611837],[-17.3739312,14.7617375],[-17.3734471,14.7619255],[-17.372971,14.762111],[-17.3717131,14.7625532],[-17.3703492,14.7629487],[-17.3694184,14.7631795],[-17.3675315,14.7635726],[-17.3666142,14.7637255],[-17.3657374,14.7638442],[-17.3626583,14.7641972],[-17.3586396,14.7646552],[-17.3585089,14.7646672],[-17.3572907,14.7648089],[-17.3565291,14.7648945],[-17.3557847,14.7649782],[-17.3544521,14.7651231],[-17.3537287,14.7652123],[-17.3523108,14.7653648],[-17.3518787,14.7654008],[-17.3514598,14.7654111],[-17.3511132,14.7654007],[-17.3506572,14.765367],[-17.3502748,14.7653227],[-17.3499644,14.7652716],[-17.3496746,14.7652088],[-17.3493559,14.7651234],[-17.3486358,14.7649199],[-17.3464834,14.7641781],[-17.3460891,14.7640484],[-17.3457458,14.7639252],[-17.3454051,14.7637826],[-17.3450765,14.7636127],[-17.3448003,14.763448],[-17.3444918,14.7632366],[-17.3442142,14.7630123],[-17.34395,14.7627646],[-17.3437314,14.7625325],[-17.3435088,14.7622666],[-17.3432848,14.7619541],[-17.342394,14.7605768],[-17.3422828,14.7604129],[-17.3421915,14.7603017],[-17.3417962,14.7598674],[-17.3415548,14.7596586],[-17.3413349,14.7594978],[-17.341064,14.7593279],[-17.3407716,14.7591756],[-17.3404766,14.7590426],[-17.3401842,14.7589402],[-17.3398529,14.7588494],[-17.3394506,14.7587547],[-17.3340111,14.7576122],[-17.3335068,14.7575006],[-17.3331233,14.7574112],[-17.3326325,14.7572802],[-17.3321403,14.7571336],[-17.3316562,14.7569598],[-17.3312472,14.7568017],[-17.3307804,14.7566123],[-17.3303177,14.7563893],[-17.3298604,14.7561442],[-17.329497,14.7559523],[-17.3290531,14.7556864],[-17.3286279,14.7554088],[-17.3282551,14.7551546],[-17.3279265,14.7549017],[-17.3275671,14.7546138],[-17.3272144,14.7543143],[-17.3226466,14.7501421],[-17.322031,14.7495948],[-17.321677,14.7492991],[-17.3213082,14.7490242],[-17.3209273,14.7487739],[-17.3205692,14.7485612],[-17.3201655,14.7483368],[-17.3197471,14.7481384],[-17.3189371,14.7477973],[-17.3181727,14.7474757],[-17.3177515,14.7472824],[-17.3173398,14.7470658],[-17.3169804,14.746857],[-17.3165928,14.746608],[-17.3162146,14.746337],[-17.3158619,14.7460633],[-17.3155347,14.7457884],[-17.3151123,14.7453824],[-17.3142499,14.7444486],[-17.3137098,14.7438433],[-17.3070066,14.7363309],[-17.3067022,14.7360119],[-17.3063937,14.7357252],[-17.306045,14.7354308],[-17.3056964,14.7351584],[-17.3053343,14.7349094],[-17.3049132,14.7346552],[-17.304547,14.7344555],[-17.2906491,14.7268097],[-17.2846809,14.7235603],[-17.2839872,14.7231821],[-17.2833321,14.722825],[-17.2789863,14.7203741],[-17.2749084,14.7181422],[-17.2740159,14.7176464],[-17.2731366,14.7171641],[-17.272977,14.7170797],[-17.2724471,14.7167993],[-17.2721023,14.7166332],[-17.2718743,14.7165304],[-17.2715566,14.7164063],[-17.2710376,14.7162325],[-17.2700466,14.7159589],[-17.2676353,14.7152931],[-17.2661707,14.7148887],[-17.2658099,14.7147706],[-17.2654961,14.7146396],[-17.2652802,14.7145358],[-17.2650576,14.7144126],[-17.2643076,14.7139622],[-17.254496,14.7080787],[-17.2492071,14.7049071],[-17.2482964,14.7043558],[-17.247697,14.7039731],[-17.2470492,14.7035502],[-17.246384,14.703069],[-17.2453675,14.702292],[-17.2395498,14.6977504],[-17.2389999,14.6973457],[-17.2386928,14.6971421],[-17.2383615,14.6969565],[-17.2380383,14.6967957],[-17.2377299,14.6966634],[-17.2373852,14.6965479],[-17.2370338,14.6964441],[-17.236661,14.6963611],[-17.2363392,14.6963092],[-17.2359623,14.6962729],[-17.2355801,14.6962573],[-17.2352086,14.6962677],[-17.2347996,14.6963105],[-17.2343865,14.6963767],[-17.2340137,14.6964571],[-17.233665,14.6965583],[-17.2329046,14.6968164],[-17.2299474,14.6978983],[-17.2291662,14.6981788],[-17.2261208,14.699255],[-17.2259838,14.6993042],[-17.2216338,14.7008463],[-17.2121145,14.7042904],[-17.211713,14.7044395],[-17.2114176,14.7045589],[-17.2111333,14.704689],[-17.2108836,14.7048129],[-17.2105191,14.7050133],[-17.2101845,14.7052134],[-17.2098775,14.7054218],[-17.2095559,14.7056582],[-17.2092669,14.7058938],[-17.2090541,14.7060773],[-17.2085667,14.7065241],[-17.2079304,14.7071273],[-17.2067622,14.7082392],[-17.2053756,14.7095641],[-17.204782,14.7101028],[-17.2043434,14.7105242],[-17.2043012,14.7105654],[-17.2039504,14.7108891],[-17.2036431,14.7111775],[-17.2034451,14.7113648],[-17.2030325,14.7117495],[-17.2013752,14.7132979],[-17.201278,14.7133887],[-17.1990216,14.7155152],[-17.1984391,14.7160563]]}}